start=new Date('2022-02-22T00:00:00.000Z').valueOf();
sats=[{"ECCENTRICITY":"0.00034500","MEAN_MOTION_DDOT":"0.0000000000000","PERIAPSIS":"357.407","REF_FRAME":"TEME","OBJECT_TYPE":"PAYLOAD","ARG_OF_PERICENTER":"281.9163","TLE_LINE1":"1 49139U 21082K   22052.91667824  .00048291  00000-0  40464-3 0  9998","SITE":"AFWTR","CLASSIFICATION_TYPE":"U","BSTAR":"0.00040464000000","DECAY_DATE":null,"NORAD_CAT_ID":"49139","APOAPSIS":"362.056","EPHEMERIS_TYPE":"0","ELEMENT_SET_NO":"999","REV_AT_EPOCH":"369","OBJECT_NAME":"STARLINK-3057","LAUNCH_DATE":"2021-09-14","OBJECT_ID":"2021-082K","TIME_SYSTEM":"UTC","SEMIMAJOR_AXIS":"6737.866","MEAN_ANOMALY":"170.0479","GP_ID":"196574665","MEAN_MOTION_DOT":"0.00048291","RA_OF_ASC_NODE":"34.9066","MEAN_ELEMENT_THEORY":"SGP4","FILE":"3312023","INCLINATION":"70.0002","CENTER_NAME":"EARTH","COUNTRY_CODE":"US","TLE_LINE2":"2 49139  70.0002  34.9066 0003450 281.9163 170.0479 15.69709102  3693","RCS_SIZE":"LARGE","MEAN_MOTION":"15.69709102","PERIOD":"91.737","EPOCH":"2022-02-21T22:00:00.999936"},{"MEAN_MOTION_DOT":"0.00064743","RA_OF_ASC_NODE":"34.8992","MEAN_ELEMENT_THEORY":"SGP4","FILE":"3312023","INCLINATION":"70.0018","COUNTRY_CODE":"US","CENTER_NAME":"EARTH","TLE_LINE2":"2 49140  70.0018  34.8992 0003502 285.0691 173.2920 15.69725113  3694","RCS_SIZE":"LARGE","MEAN_MOTION":"15.69725113","EPOCH":"2022-02-21T22:00:00.999936","PERIOD":"91.736","ECCENTRICITY":"0.00035020","MEAN_MOTION_DDOT":"0.0000000000000","PERIAPSIS":"357.326","REF_FRAME":"TEME","OBJECT_TYPE":"PAYLOAD","ARG_OF_PERICENTER":"285.0691","TLE_LINE1":"1 49140U 21082L   22052.91667824  .00064743  00000-0  54047-3 0  9992","SITE":"AFWTR","BSTAR":"0.00054047000000","CLASSIFICATION_TYPE":"U","NORAD_CAT_ID":"49140","DECAY_DATE":null,"APOAPSIS":"362.045","EPHEMERIS_TYPE":"0","ELEMENT_SET_NO":"999","REV_AT_EPOCH":"369","OBJECT_NAME":"STARLINK-3118","LAUNCH_DATE":"2021-09-14","TIME_SYSTEM":"UTC","OBJECT_ID":"2021-082L","SEMIMAJOR_AXIS":"6737.821","MEAN_ANOMALY":"173.2920","GP_ID":"196573412"},{"RA_OF_ASC_NODE":"57.9172","MEAN_MOTION_DOT":"0.00057052","INCLINATION":"70.0006","FILE":"3312023","MEAN_ELEMENT_THEORY":"SGP4","TLE_LINE2":"2 49141  70.0006  57.9172 0003441 278.3768 117.2643 14.98311225  3584","COUNTRY_CODE":"US","CENTER_NAME":"EARTH","RCS_SIZE":"LARGE","EPOCH":"2022-02-21T22:00:00.999936","PERIOD":"96.108","MEAN_MOTION":"14.98311225","MEAN_MOTION_DDOT":"0.0000000000000","ECCENTRICITY":"0.00034410","REF_FRAME":"TEME","OBJECT_TYPE":"PAYLOAD","PERIAPSIS":"569.724","TLE_LINE1":"1 49141U 21082M   22052.91667824  .00057052  00000-0  47526-2 0  9991","SITE":"AFWTR","ARG_OF_PERICENTER":"278.3768","APOAPSIS":"574.508","EPHEMERIS_TYPE":"0","NORAD_CAT_ID":"49141","DECAY_DATE":null,"CLASSIFICATION_TYPE":"U","BSTAR":"0.00475260000000","LAUNCH_DATE":"2021-09-14","OBJECT_NAME":"STARLINK-3093","REV_AT_EPOCH":"358","ELEMENT_SET_NO":"999","MEAN_ANOMALY":"117.2643","SEMIMAJOR_AXIS":"6950.251","OBJECT_ID":"2021-082M","TIME_SYSTEM":"UTC","GP_ID":"196573661"},{"OBJECT_ID":"2021-082N","TIME_SYSTEM":"UTC","SEMIMAJOR_AXIS":"6737.813","MEAN_ANOMALY":"176.7137","ELEMENT_SET_NO":"999","REV_AT_EPOCH":"369","OBJECT_NAME":"STARLINK-3042","LAUNCH_DATE":"2021-09-14","GP_ID":"196574911","PERIAPSIS":"357.376","REF_FRAME":"TEME","OBJECT_TYPE":"PAYLOAD","ECCENTRICITY":"0.00034170","MEAN_MOTION_DDOT":"0.0000000000000","BSTAR":"0.00055606000000","CLASSIFICATION_TYPE":"U","DECAY_DATE":null,"NORAD_CAT_ID":"49142","EPHEMERIS_TYPE":"0","APOAPSIS":"361.981","ARG_OF_PERICENTER":"283.7521","TLE_LINE1":"1 49142U 21082N   22052.91667824  .00066638  00000-0  55606-3 0  9991","SITE":"AFWTR","RCS_SIZE":"LARGE","MEAN_MOTION":"15.69727597","EPOCH":"2022-02-21T22:00:00.999936","PERIOD":"91.736","MEAN_ELEMENT_THEORY":"SGP4","FILE":"3312023","INCLINATION":"70.0002","MEAN_MOTION_DOT":"0.00066638","RA_OF_ASC_NODE":"34.8957","COUNTRY_CODE":"US","CENTER_NAME":"EARTH","TLE_LINE2":"2 49142  70.0002  34.8957 0003417 283.7521 176.7137 15.69727597  3698"},{"ARG_OF_PERICENTER":"277.6243","TLE_LINE1":"1 49143U 21082P   22052.91667824 -.00658969  00000-0 -29287-1 0  9992","SITE":"AFWTR","DECAY_DATE":null,"NORAD_CAT_ID":"49143","BSTAR":"-0.02928700000000","CLASSIFICATION_TYPE":"U","APOAPSIS":"496.218","EPHEMERIS_TYPE":"0","ECCENTRICITY":"0.00032900","MEAN_MOTION_DDOT":"0.0000000000000","PERIAPSIS":"491.696","OBJECT_TYPE":"PAYLOAD","REF_FRAME":"TEME","GP_ID":"196575166","ELEMENT_SET_NO":"999","LAUNCH_DATE":"2021-09-14","REV_AT_EPOCH":"365","OBJECT_NAME":"STARLINK-3109","SEMIMAJOR_AXIS":"6872.092","OBJECT_ID":"2021-082P","TIME_SYSTEM":"UTC","MEAN_ANOMALY":"14.0262","CENTER_NAME":"EARTH","COUNTRY_CODE":"US","TLE_LINE2":"2 49143  70.0000  37.9022 0003290 277.6243  14.0262 15.23945125  3654","RA_OF_ASC_NODE":"37.9022","MEAN_MOTION_DOT":"-0.00658969","MEAN_ELEMENT_THEORY":"SGP4","INCLINATION":"70.0000","FILE":"3312023","EPOCH":"2022-02-21T22:00:00.999936","PERIOD":"94.492","MEAN_MOTION":"15.23945125","RCS_SIZE":"LARGE"},{"ARG_OF_PERICENTER":"281.4875","SITE":"AFWTR","TLE_LINE1":"1 49144U 21082Q   22052.91667824  .00063754  00000-0  53052-2 0  9991","CLASSIFICATION_TYPE":"U","BSTAR":"0.00530520000000","DECAY_DATE":null,"NORAD_CAT_ID":"49144","APOAPSIS":"574.525","EPHEMERIS_TYPE":"0","ECCENTRICITY":"0.00034570","MEAN_MOTION_DDOT":"0.0000000000000","PERIAPSIS":"569.720","REF_FRAME":"TEME","OBJECT_TYPE":"PAYLOAD","GP_ID":"196573913","ELEMENT_SET_NO":"999","REV_AT_EPOCH":"358","OBJECT_NAME":"STARLINK-3100","LAUNCH_DATE":"2021-09-14","TIME_SYSTEM":"UTC","OBJECT_ID":"2021-082Q","SEMIMAJOR_AXIS":"6950.257","MEAN_ANOMALY":"139.7622","COUNTRY_CODE":"US","CENTER_NAME":"EARTH","TLE_LINE2":"2 49144  70.0015  57.9213 0003457 281.4875 139.7622 14.98309178  3584","MEAN_MOTION_DOT":"0.00063754","RA_OF_ASC_NODE":"57.9213","MEAN_ELEMENT_THEORY":"SGP4","FILE":"3312023","INCLINATION":"70.0015","MEAN_MOTION":"14.98309178","PERIOD":"96.108","EPOCH":"2022-02-21T22:00:00.999936","RCS_SIZE":"LARGE"},{"RA_OF_ASC_NODE":"34.8872","MEAN_MOTION_DOT":"0.00066587","MEAN_ELEMENT_THEORY":"SGP4","INCLINATION":"70.0009","FILE":"3312023","CENTER_NAME":"EARTH","COUNTRY_CODE":"US","TLE_LINE2":"2 49145  70.0009  34.8872 0003438 281.5038 189.5721 15.69720639  3697","RCS_SIZE":"LARGE","PERIOD":"91.736","EPOCH":"2022-02-21T22:00:00.999936","MEAN_MOTION":"15.69720639","ECCENTRICITY":"0.00034380","MEAN_MOTION_DDOT":"0.0000000000000","PERIAPSIS":"357.382","OBJECT_TYPE":"PAYLOAD","REF_FRAME":"TEME","ARG_OF_PERICENTER":"281.5038","SITE":"AFWTR","TLE_LINE1":"1 49145U 21082R   22052.91667824  .00066587  00000-0  55580-3 0  9998","DECAY_DATE":null,"NORAD_CAT_ID":"49145","BSTAR":"0.00055580000000","CLASSIFICATION_TYPE":"U","EPHEMERIS_TYPE":"0","APOAPSIS":"362.015","ELEMENT_SET_NO":"999","LAUNCH_DATE":"2021-09-14","REV_AT_EPOCH":"369","OBJECT_NAME":"STARLINK-3119","SEMIMAJOR_AXIS":"6737.833","TIME_SYSTEM":"UTC","OBJECT_ID":"2021-082R","MEAN_ANOMALY":"189.5721","GP_ID":"196574162"},{"MEAN_MOTION_DOT":"-0.00658541","RA_OF_ASC_NODE":"37.9015","FILE":"3311711","INCLINATION":"70.0001","MEAN_ELEMENT_THEORY":"SGP4","TLE_LINE2":"2 49146  70.0001  37.9015 0003373 281.1439  26.8555 15.24029831 26434","CENTER_NAME":"EARTH","COUNTRY_CODE":"US","RCS_SIZE":"LARGE","MEAN_MOTION":"15.24029831","EPOCH":"2022-02-21T22:00:00.999936","PERIOD":"94.486","MEAN_MOTION_DDOT":"0.0000000000000","ECCENTRICITY":"0.00033730","OBJECT_TYPE":"PAYLOAD","REF_FRAME":"TEME","PERIAPSIS":"491.384","SITE":"AFWTR","TLE_LINE1":"1 49146U 21082S   22052.91667824 -.00658541  00000-0 -29192-1 0  9996","ARG_OF_PERICENTER":"281.1439","APOAPSIS":"496.020","EPHEMERIS_TYPE":"0","CLASSIFICATION_TYPE":"U","BSTAR":"-0.02919200000000","NORAD_CAT_ID":"49146","DECAY_DATE":null,"REV_AT_EPOCH":"2643","OBJECT_NAME":"STARLINK-3116","LAUNCH_DATE":"2021-09-14","ELEMENT_SET_NO":"999","MEAN_ANOMALY":"26.8555","OBJECT_ID":"2021-082S","TIME_SYSTEM":"UTC","SEMIMAJOR_AXIS":"6871.837","GP_ID":"196544645"},{"EPHEMERIS_TYPE":"0","APOAPSIS":"362.250","DECAY_DATE":null,"NORAD_CAT_ID":"49147","CLASSIFICATION_TYPE":"U","BSTAR":"0.00056396000000","TLE_LINE1":"1 49147U 21082T   22052.91667824  .00067491  00000-0  56396-3 0  9991","SITE":"AFWTR","ARG_OF_PERICENTER":"283.3095","REF_FRAME":"TEME","OBJECT_TYPE":"PAYLOAD","PERIAPSIS":"357.326","MEAN_MOTION_DDOT":"0.0000000000000","ECCENTRICITY":"0.00036540","GP_ID":"196544140","MEAN_ANOMALY":"181.3998","SEMIMAJOR_AXIS":"6737.923","OBJECT_ID":"2021-082T","TIME_SYSTEM":"UTC","LAUNCH_DATE":"2021-09-14","OBJECT_NAME":"STARLINK-3071","REV_AT_EPOCH":"2650","ELEMENT_SET_NO":"999","TLE_LINE2":"2 49147  70.0006  34.8942 0003654 283.3095 181.3998 15.69689432 26503","CENTER_NAME":"EARTH","COUNTRY_CODE":"US","INCLINATION":"70.0006","FILE":"3311711","MEAN_ELEMENT_THEORY":"SGP4","RA_OF_ASC_NODE":"34.8942","MEAN_MOTION_DOT":"0.00067491","EPOCH":"2022-02-21T22:00:00.999936","PERIOD":"91.738","MEAN_MOTION":"15.69689432","RCS_SIZE":"LARGE"},{"GP_ID":"196573413","SEMIMAJOR_AXIS":"6871.583","OBJECT_ID":"2021-082U","TIME_SYSTEM":"UTC","MEAN_ANOMALY":"42.6263","ELEMENT_SET_NO":"999","LAUNCH_DATE":"2021-09-14","REV_AT_EPOCH":"365","OBJECT_NAME":"STARLINK-3048","NORAD_CAT_ID":"49148","DECAY_DATE":null,"CLASSIFICATION_TYPE":"U","BSTAR":"-0.02909900000000","EPHEMERIS_TYPE":"0","APOAPSIS":"495.780","ARG_OF_PERICENTER":"281.7036","SITE":"AFWTR","TLE_LINE1":"1 49148U 21082U   22052.91667824 -.00658141  00000-0 -29099-1 0  9990","PERIAPSIS":"491.115","OBJECT_TYPE":"PAYLOAD","REF_FRAME":"TEME","ECCENTRICITY":"0.00033940","MEAN_MOTION_DDOT":"0.0000000000000","PERIOD":"94.481","EPOCH":"2022-02-21T22:00:00.999936","MEAN_MOTION":"15.24114559","RCS_SIZE":"LARGE","CENTER_NAME":"EARTH","COUNTRY_CODE":"US","TLE_LINE2":"2 49148  70.0001  37.9008 0003394 281.7036  42.6263 15.24114559  3653","MEAN_ELEMENT_THEORY":"SGP4","INCLINATION":"70.0001","FILE":"3312023","RA_OF_ASC_NODE":"37.9008","MEAN_MOTION_DOT":"-0.00658141"}];
